{
    "links": {
        "self": "http://www.neowsapp.com/rest/v1/neo/3739392?api_key=iIulBulltgU6a56xZRHN4H3l9WmuAYTsLGpBGhQ2"
    },
    "id": "3739392",
    "neo_reference_id": "3739392",
    "name": "(2016 AL65)",
    "designation": "2016 AL65",
    "nasa_jpl_url": "http://ssd.jpl.nasa.gov/sbdb.cgi?sstr=3739392",
    "absolute_magnitude_h": 23.0,
    "estimated_diameter": {
        "kilometers": {
            "estimated_diameter_min": 0.0667659413,
            "estimated_diameter_max": 0.1492931834
        },
        "meters": {
            "estimated_diameter_min": 66.7659413495,
            "estimated_diameter_max": 149.2931834393
        },
        "miles": {
            "estimated_diameter_min": 0.0414864197,
            "estimated_diameter_max": 0.0927664547
        },
        "feet": {
            "estimated_diameter_min": 219.0483710172,
            "estimated_diameter_max": 489.807047955
        }
    },
    "is_potentially_hazardous_asteroid": false,
    "close_approach_data": [
        {
            "close_approach_date": "1930-12-24",
            "close_approach_date_full": "1930-Dec-24 16:54",
            "epoch_date_close_approach": -1231398360000,
            "relative_velocity": {
                "kilometers_per_second": "14.1696718378",
                "kilometers_per_hour": "51010.8186160199",
                "miles_per_hour": "31696.1389339375"
            },
            "miss_distance": {
                "astronomical": "0.3040058203",
                "lunar": "118.2582640967",
                "kilometers": "45478623.184482761",
                "miles": "28259106.0546776618"
            },
            "orbiting_body": "Earth"
        },
        {
            "close_approach_date": "1979-02-07",
            "close_approach_date_full": "1979-Feb-07 21:41",
            "epoch_date_close_approach": 287271660000,
            "relative_velocity": {
                "kilometers_per_second": "8.9196930921",
                "kilometers_per_hour": "32110.89513143",
                "miles_per_hour": "19952.4614776377"
            },
            "miss_distance": {
                "astronomical": "0.192679534",
                "lunar": "74.952338726",
                "kilometers": "28824447.87899258",
                "miles": "17910681.382674404"
            },
            "orbiting_body": "Earth"
        },
        {
            "close_approach_date": "2016-01-10",
            "close_approach_date_full": "2016-Jan-10 11:30",
            "epoch_date_close_approach": 1452425400000,
            "relative_velocity": {
                "kilometers_per_second": "8.864696748",
                "kilometers_per_hour": "31912.9082929084",
                "miles_per_hour": "19829.4401556685"
            },
            "miss_distance": {
                "astronomical": "0.1239796013",
                "lunar": "48.2280649057",
                "kilometers": "18547084.277929231",
                "miles": "11524623.7664001478"
            },
            "orbiting_body": "Earth"
        },
        {
            "close_approach_date": "2041-12-21",
            "close_approach_date_full": "2041-Dec-21 21:07",
            "epoch_date_close_approach": 2271272820000,
            "relative_velocity": {
                "kilometers_per_second": "16.7988374252",
                "kilometers_per_hour": "60475.8147307992",
                "miles_per_hour": "37577.3194364791"
            },
            "miss_distance": {
                "astronomical": "0.4095139483",
                "lunar": "159.3009258887",
                "kilometers": "61262414.400970121",
                "miles": "38066699.1324688298"
            },
            "orbiting_body": "Earth"
        }
    ],
    "orbital_data": {
        "orbit_id": "17",
        "orbit_determination_date": "2017-04-06 08:29:20",
        "first_observation_date": "2016-01-03",
        "last_observation_date": "2016-04-03",
        "data_arc_in_days": 91,
        "observations_used": 60,
        "orbit_uncertainty": "5",
        "minimum_orbit_intersection": ".0924904",
        "jupiter_tisserand_invariant": "3.294",
        "epoch_osculation": "2459000.5",
        "eccentricity": ".5527180364781253",
        "semi_major_axis": "2.39018644436166",
        "inclination": "8.439393354265365",
        "ascending_node_longitude": "107.8203343027536",
        "orbital_period": "1349.727496592949",
        "perihelion_distance": "1.069087286017451",
        "perihelion_argument": "17.75630877788476",
        "aphelion_distance": "3.711285602705869",
        "perihelion_time": "2458756.939514932730",
        "mean_anomaly": "64.96257566475313",
        "mean_motion": ".2667205053677356",
        "equinox": "J2000",
        "orbit_class": {
            "orbit_class_type": "AMO",
            "orbit_class_description": "Near-Earth asteroid orbits similar to that of 1221 Amor",
            "orbit_class_range": "1.017 AU < q (perihelion) < 1.3 AU"
        }
    },
    "is_sentry_object": false
}